PROMETHEUS 2-3          
1 41855U 16067H   23344.37921673  .00007061  00000+0  43741-3 0  9992
2 41855  98.0767 142.6211 0012843 355.4179   4.6929 15.10051515387036
DIDO-2                  
1 42000U 17008BE  23344.60807684  .00023605  00000+0  41644-3 0  9994
2 42000  97.1777  38.7812 0005963 107.2702 252.9203 15.50372296379166
AALTO-1                 
1 42775U 17036L   23344.79014238  .00019186  00000+0  40819-3 0  9991
2 42775  97.1327  10.5757 0007810 169.1505 190.9914 15.44977762359691
URSA MAIOR              
1 42776U 17036M   23344.60380415  .00024894  00000+0  45950-3 0  9998
2 42776  97.1330  12.4603 0007367 162.5297 197.6210 15.49060578359785
DIAMOND RED             
1 42783U 17036U   23344.59172715  .00038407  00000+0  55376-3 0  9994
2 42783  97.1262  16.8319 0005072 158.5882 201.5586 15.55895139360065
PEGASUS                 
1 42784U 17036V   23344.62750985  .00217687  00000+0  98444-3 0  9992
2 42784  97.1152  22.7381 0003564 127.8643 232.2950 15.83394423360479
DIAMOND GREEN           
1 42785U 17036W   23344.56853468  .00049668  00000+0  62796-3 0  9999
2 42785  97.1234  17.4762 0005217 152.3513 207.8023 15.59370731360176
DIAMOND BLUE            
1 42786U 17036X   23344.38931897  .00044357  00000+0  60549-3 0  9997
2 42786  97.1270  16.9992 0005587 152.0938 208.0618 15.57344959360123
CICERO 6                
1 42793U 17036AE  23344.61670035  .00024747  00000+0  42208-3 0  9998
2 42793  97.1249  16.2356 0005436 154.2112 205.9412 15.51321891360127
CORVUS BC2              
1 42846U 17042X   23344.52808711  .00001731  00000+0  15926-3 0  9993
2 42846  97.3719 175.4318 0008481 347.2348  12.8658 14.95929409349078
CORVUS BC1              
1 42847U 17042Y   23344.50728854  .00001588  00000+0  14604-3 0  9993
2 42847  97.3727 175.7867 0008231 349.1100  10.9942 14.96056023349080
MIRATA                  
1 43015U 17073C   23344.66444203  .00009260  00000+0  52272-3 0  9993
2 43015  97.6097 227.7168 0192499 183.4062 176.5866 14.98908999327865
MAKERSAT 0              
1 43016U 17073D   23344.63599206  .00006932  00000+0  43719-3 0  9994
2 43016  97.6073 224.3900 0211921 197.2711 162.1224 14.92659718327587
CORVUS BC3              
1 43118U 18004H   23344.54691761  .00027935  00000+0  48530-3 0  9993
2 43118  97.3105  59.8331 0004813 210.9081 149.1888 15.50785149329244
GOMX-4B                 
1 43196U 18015E   23344.22559514  .00018397  00000+0  39021-3 0  9992
2 43196  97.5929 141.5830 0010901 294.4249  65.5862 15.45056553326049
GOMX-4A                 
1 43197U 18015F   23344.75470162  .00021727  00000+0  39139-3 0  9993
2 43197  97.5900 145.2978 0009759 283.5728  76.4436 15.49770439326344
CUBEBEL-1 (BSUSAT-1)    
1 43666U 18083E   23344.81176589  .00065074  00000+0  82209-3 0  9991
2 43666  97.3555  19.3763 0005430 174.3753 185.7566 15.59328146284491
CICERO 10               
1 43690U 18088A   23344.36465238  .00025137  00000+0  49936-3 0  9991
2 43690  85.0248 312.5720 0004372 310.2338  49.8535 15.46831079282625
PROXIMA I               
1 43694U 18088E   23344.57538721  .00036434  00000+0  58224-3 0  9998
2 43694  85.0162 307.1616 0005024 220.2894 139.7993 15.52993771283016
PROXIMA II              
1 43696U 18088G   23343.90158554  .00036305  00000+0  58757-3 0  9996
2 43696  85.0167 307.7229 0005031 226.2939 133.7903 15.52642110282891
SIRION PATHFINDER-2     
1 43759U 18099B   23344.76277178  .00002749  00000+0  22339-3 0  9999
2 43759  97.5470  41.3453 0012071 216.6221 143.4179 15.00346438274087
CORVUS BC4              
1 43767U 18099K   23344.72084700  .00002753  00000+0  22658-3 0  9990
2 43767  97.5495  39.0041 0007599 254.2432 105.7954 14.99885637273976
MOVE-II                 
1 43780U 18099Y   23344.66018355  .00008309  00000+0  53597-3 0  9990
2 43780  97.5509  45.2758 0006859 271.3471  88.6972 15.08524727274298
SPACEBEE-7              
1 43816U 18099BL  23344.70791424  .00005792  00000+0  39950-3 0  9990
2 43816  97.5785  46.2825 0010327 211.1962 148.8653 15.06151068273849
SPACEBEE-5              
1 43817U 18099BM  23344.49843292  .00079925  00000+0  18669-2 0  9990
2 43817  97.5700  59.1941 0002821 214.4181 145.6883 15.41889861274599
SPACEBEE-6              
1 43818U 18099BN  23344.45641864  .00010462  00000+0  60822-3 0  9998
2 43818  97.5704  49.1226 0009780 225.5044 134.5388 15.12228243274148
SHIELDS 1               
1 43850U 18104B   23344.65393698  .00006358  00000+0  20223-3 0  9992
2 43850  85.0283  51.1546 0013989  66.7837 293.4882 15.32274120277095
STF-1                   
1 43852U 18104D   23344.59506969  .00076616  00000+0  73093-3 0  9991
2 43852  85.0145  44.8935 0005432  58.9496 301.2302 15.66489242277751
ZACUBE-2                
1 43907U 18111AH  23344.79916368  .00040436  00000+0  57388-3 0  9990
2 43907  97.1036 221.5018 0008625 298.1397  61.8986 15.56285780276459
LUME 1                  
1 43908U 18111AJ  23344.59464084  .00091412  00000+0  72054-3 0  9999
2 43908  97.1046 227.2381 0003258 276.4011  83.6881 15.71152025276814
SONATE                  
1 44400U 19038Q   23344.52007874  .00008908  00000+0  34517-3 0  9999
2 44400  97.7007 326.5719 0020743  58.7109 301.6156 15.26202586245081
LUCKY-7                 
1 44406U 19038W   23344.50574291  .00013360  00000+0  44478-3 0  9990
2 44406  97.6957 328.7475 0018746  51.4464 308.8452 15.31097598245233
BEESAT 9                
1 44412U 19038AC  23344.54437722  .00030283  00000+0  67295-3 0  9993
2 44412  97.6849 332.6533 0014521  44.9866 315.2554 15.43523124245225
JAISAT-1                
1 44419U 19038F   23344.60008093  .00029398  00000+0  65332-3 0  9997
2 44419  97.6831 333.8335 0013823  42.9674 317.2650 15.43539228245619
DUCHIFAT-3              
1 44854U 19089C   23344.59668488  .00006959  00000+0  42168-3 0  9994
2 44854  36.9589 114.1020 0007930 335.3659  24.6706 15.10217862219470
M2 PATHFINDER           
1 45727U 20037E   23344.59749923  .00001550  00000+0  14514-3 0  9999
2 45727  97.7637 157.4078 0012674  41.0765 319.1408 14.95464062187598
NETSAT-4                
1 46504U 20068U   23344.30320706  .00004640  00000+0  28403-3 0  9995
2 46504  97.7840 292.3137 0008683 297.5391  62.4955 15.10697632175468
NETSAT-3                
1 46505U 20068V   23344.29859604  .00004502  00000+0  27828-3 0  9995
2 46505  97.7804 292.0167 0008127 307.8887  52.1607 15.10360506175464
NETSAT-1                
1 46506U 20068W   23344.79693714  .00004355  00000+0  27507-3 0  9999
2 46506  97.7834 292.2964 0007072 319.7679  40.3025 15.09589568175523
NETSAT-2                
1 46507U 20068X   23344.11094587  .00004709  00000+0  28895-3 0  9993
2 46507  97.7822 291.8139 0006563 332.8467  27.2418 15.10613431175388
WILDTRACKCUBE-SIMBA     
1 47941U 21022K   23344.78169519  .00006438  00000+0  33805-3 0  9996
2 47941  97.4797 238.8389 0019593  84.7777 275.5691 15.15895107149728
BEESAT-6                
1 47957U 21022AB  23344.70428303  .00025193  00000+0  85308-3 0  9998
2 47957  97.4736 243.1283 0016094  71.1433 289.1551 15.30447278149817
SMOG-1                  
1 47964U 21022AJ  23344.16615899  .00022038  00000+0  71240-3 0  9999
2 47964  97.4823 245.2325 0014574  59.6103 300.6577 15.31994896148908
BCCSAT-1                
1 48041U 21022AK  23344.73555469  .00018381  00000+0  67706-3 0  9993
2 48041  97.4817 243.9147 0012871  60.6898 299.5625 15.27806954148841
BEESAT-5                
1 48083U 21022AM  23344.70956783  .00027916  00000+0  87186-3 0  9998
2 48083  97.4608 243.6098 0015345  68.0579 292.2292 15.33037774149006
BEESAT-7                
1 48084U 21022AN  23344.68982126  .00022636  00000+0  75287-3 0  9999
2 48084  97.4754 243.4074 0015326  67.4418 292.8443 15.31061363148557
BEESAT-8                
1 48085U 21022AP  23343.66625145  .00011583  00000+0  51556-3 0  9994
2 48085  97.4850 240.4479 0017850  80.1926 280.1324 15.21484488148814
LEDSAT                  
1 49069U 21073D   23344.74994265  .00007834  00000+0  38281-3 0  9999
2 49069  97.4646  52.9090 0021039 225.4565 134.4952 15.18321346127658
